IRIDIUM 7               
1 24793U 97020B   25272.63273258  .00000619  00000+0  20655-3 0  9993
2 24793  86.3960 133.1834 0002323  92.8283 267.3180 14.36013246486885
IRIDIUM 5               
1 24795U 97020D   25272.74358736  .00015597  00000+0  12501-2 0  9993
2 24795  86.3901  35.4578 0108448 122.2411 238.9386 14.95424560501089
IRIDIUM 4               
1 24796U 97020E   25272.68999132  .00000648  00000+0  21238-3 0  9997
2 24796  86.3949 129.9677 0002109  90.3084 269.8355 14.36914797487475
IRIDIUM 914             
1 24836U 97030A   25272.05327051  .00000702  00000+0  21247-3 0  9990
2 24836  86.3949 138.5286 0001061 133.1922 226.9366 14.40959004622084
IRIDIUM 16              
1 24841U 97030F   25272.65606811  .00000692  00000+0  21888-3 0  9995
2 24841  86.4091 161.4367 0004310  84.2047 275.9642 14.38791993482025
IRIDIUM 911             
1 24842U 97030G   25272.76388933  .00001078  00000+0  28596-3 0  9992
2 24842  86.4514 160.0489 0016217 105.9417 254.3575 14.47759680490210
IRIDIUM 17              
1 24870U 97034B   25272.84649225  .00000904  00000+0  29320-3 0  9993
2 24870  86.4028 190.7696 0003451  62.1717 297.9830 14.37922029478620
IRIDIUM 920             
1 24871U 97034C   25272.75925284  .00000850  00000+0  25501-3 0  9993
2 24871  86.4042 169.8242 0013684  94.9198 265.3564 14.41626990481648
